NORAD_CAT_ID,OBJECT_NAME,OBJECT_TYPE,EPOCH,MEAN_MOTION,ECCENTRICITY,INCLINATION,RA_OF_ASC_NODE,ARG_OF_PERICENTER,MEAN_ANOMALY,BSTAR,MEAN_MOTION_DOT,MEAN_MOTION_DDOT,TLE_LINE0,TLE_LINE1,TLE_LINE2,SEMIMAJOR_AXIS,PERIOD,APOGEE,PERIGEE,DECAYED
53175.0,STARLINK-4292,PAYLOAD,2023-03-12 22:14:46,15.0886538,0.0002134,53.2166,39.7222,113.6308,246.4909,0.0013883,0.00021891,0.0,0 STARLINK-4292,1 53175U 22083AV  23071.92692730  .00021891  00000-0  13883-2 0  9993,2 53175  53.2166  39.7222 0002134 113.6308 246.4909 15.08865380 36246,6917.803,95.436,541.144,538.192,0.0
53175.0,STARLINK-4292,PAYLOAD,2023-03-12 23:50:09,15.08859865,0.0001946,53.2162,39.4253,111.6052,248.5148,0.00095033,0.00014877,0.0,0 STARLINK-4292,1 53175U 22083AV  23071.99316698  .00014877  00000-0  95033-3 0  9990,2 53175  53.2162  39.4253 0001946 111.6052 248.5148 15.08859865 36897,6917.82,95.436,541.031,538.338,0.0
53175.0,STARLINK-4292,PAYLOAD,2023-03-13 01:25:32,15.08857379,0.0001659,53.2165,39.1299,102.0539,258.0639,0.00063014,9.76e-05,0.0,0 STARLINK-4292,1 53175U 22083AV  23072.05940658  .00009760  00000-0  63014-3 0  9996,2 53175  53.2165  39.1299 0001659 102.0539 258.0639 15.08857379 36262,6917.827,95.436,540.84,538.545,0.0
53175.0,STARLINK-4292,PAYLOAD,2023-03-13 20:30:10,15.08833361,0.0001875,53.2169,35.5651,31.1704,328.9399,0.001325,0.00020859,0.0,0 STARLINK-4292,1 53175U 22083AV  23072.85429081  .00020859  00000-0  13250-2 0  9994,2 53175  53.2169  35.5651 0001875  31.1704 328.9399 15.08833361 37024,6917.901,95.438,541.063,538.469,0.0
53175.0,STARLINK-4292,PAYLOAD,2023-03-13 22:05:33,15.08844386,9.37e-05,53.2163,35.2609,79.4549,280.6549,0.00026188,3.883e-05,0.0,0 STARLINK-4292,1 53175U 22083AV  23072.92052827  .00003883  00000-0  26188-3 0  9995,2 53175  53.2163  35.2609 0000937  79.4549 280.6549 15.08844386 36397,6917.867,95.437,540.38,539.084,0.0
53175.0,STARLINK-4292,PAYLOAD,2023-03-14 04:27:06,15.08834656,0.0001262,53.2164,34.0712,97.8504,262.2632,3.8348e-06,-2.27e-06,0.0,0 STARLINK-4292,1 53175U 22083AV  23073.18549032 -.00000227  00000-0  38348-5 0  9996,2 53175  53.2164  34.0712 0001262  97.8504 262.2632 15.08834656 37071,6917.897,95.438,540.635,538.889,0.0
53175.0,STARLINK-4292,PAYLOAD,2023-03-14 13:59:25,15.08840156,0.0001156,53.2169,32.2885,88.1616,271.9509,0.00014191,1.971e-05,0.0,0 STARLINK-4292,1 53175U 22083AV  23073.58293049  .00001971  00000-0  14191-3 0  9998,2 53175  53.2169  32.2885 0001156  88.1616 271.9509 15.08840156 36493,6917.88,95.438,540.545,538.945,0.0
53175.0,STARLINK-4292,PAYLOAD,2023-03-15 04:17:52,15.08868803,0.0001137,53.2168,29.6156,87.557,272.5552,0.00071592,0.00011133,0.0,0 STARLINK-4292,1 53175U 22083AV  23074.17907909  .00011133  00000-0  71592-3 0  9990,2 53175  53.2168  29.6156 0001137  87.5570 272.5552 15.08868803 37220,6917.792,95.436,540.444,538.871,0.0
53175.0,STARLINK-4292,PAYLOAD,2023-03-15 07:28:38,15.08878668,0.0001209,53.2168,29.0187,90.4169,269.6961,0.00076537,0.00011927,0.0,0 STARLINK-4292,1 53175U 22083AV  23074.31155141  .00011927  00000-0  76537-3 0  9994,2 53175  53.2168  29.0187 0001209  90.4169 269.6961 15.08878668 37248,6917.762,95.435,540.464,538.791,0.0
53175.0,STARLINK-4292,PAYLOAD,2023-03-16 04:08:39,15.08851955,0.0001368,53.2169,25.1532,84.1159,275.9989,0.00017787,2.545e-05,0.0,0 STARLINK-4292,1 53175U 22083AV  23075.17268073  .00002545  00000-0  17787-3 0  9996,2 53175  53.2169  25.1532 0001368  84.1159 275.9989 15.08851955 37379,6917.844,95.437,540.655,538.762,0.0
53175.0,STARLINK-4292,PAYLOAD,2023-03-16 08:54:48,15.08866868,0.0001199,53.216,24.2608,72.2867,287.8256,0.0011623,0.00018272,0.0,0 STARLINK-4292,1 53175U 22083AV  23075.37139788  .00018272  00000-0  11623-2 0  9994,2 53175  53.2160  24.2608 0001199  72.2867 287.8256 15.08866868 37402,6917.798,95.436,540.493,538.834,0.0
53175.0,STARLINK-4292,PAYLOAD,2023-03-16 20:02:32,15.08810734,0.000135,53.2159,22.181,67.627,292.4865,0.0016102,0.00025411,0.0,0 STARLINK-4292,1 53175U 22083AV  23075.83509341  .00025411  00000-0  16102-2 0  9991,2 53175  53.2159  22.1810 0001350  67.6270 292.4865 15.08810734 37473,6917.97,95.439,540.769,538.901,0.0
53175.0,STARLINK-4292,PAYLOAD,2023-03-17 08:45:37,15.08851308,0.0001221,53.2157,19.8007,81.4214,278.6917,0.0021518,0.00034135,0.0,0 STARLINK-4292,1 53175U 22083AV  23076.36501273  .00034135  00000-0  21518-2 0  9996,2 53175  53.2157  19.8007 0001221  81.4214 278.6917 15.08851308 37556,6917.846,95.437,540.555,538.866,0.0
53175.0,STARLINK-4292,PAYLOAD,2023-03-17 13:31:46,15.0884116,7.32e-05,53.216,18.9089,93.3876,266.72,0.0010341,0.00016209,0.0,0 STARLINK-4292,1 53175U 22083AV  23076.56373279  .00016209  00000-0  10341-2 0  9995,2 53175  53.2160  18.9089 0000732  93.3876 266.7200 15.08841160 36942,6917.877,95.437,540.248,539.235,0.0
53175.0,STARLINK-4292,PAYLOAD,2023-03-17 19:53:19,15.08848546,0.0001328,53.2154,17.7175,94.3139,265.8005,0.0011206,0.00017595,0.0,0 STARLINK-4292,1 53175U 22083AV  23076.82869467  .00017595  00000-0  11206-2 0  9993,2 53175  53.2154  17.7175 0001328  94.3139 265.8005 15.08848546 37627,6917.854,95.437,540.638,538.801,0.0
53175.0,STARLINK-4292,PAYLOAD,2023-03-18 13:22:33,15.08865729,5.19e-05,53.2164,14.4472,63.0296,297.0749,0.0013594,0.00021428,0.0,0 STARLINK-4292,1 53175U 22083AV  23077.55732841  .00021428  00000-0  13594-2 0  9991,2 53175  53.2164  14.4472 0000519  63.0296 297.0749 15.08865729 37736,6917.802,95.436,540.026,539.308,0.0
53175.0,STARLINK-4292,PAYLOAD,2023-03-19 02:05:38,15.08847902,0.0001257,53.2168,12.0689,75.5695,284.5437,0.0017258,0.00027291,0.0,0 STARLINK-4292,1 53175U 22083AV  23078.08725330  .00027291  00000-0  17258-2 0  9990,2 53175  53.2168  12.0689 0001257  75.5695 284.5437 15.08847902 37812,6917.856,95.437,540.591,538.852,0.0
53175.0,STARLINK-4292,PAYLOAD,2023-03-20 01:56:26,15.08823747,0.000125,53.2169,7.6088,78.5799,281.5333,0.0011469,0.00018004,0.0,0 STARLINK-4292,1 53175U 22083AV  23079.08086025  .00018004  00000-0  11469-2 0  9992,2 53175  53.2169   7.6088 0001250  78.5799 281.5333 15.08823747 37966,6917.93,95.439,540.66,538.93,0.0
53175.0,STARLINK-4292,PAYLOAD,2023-03-20 05:07:12,15.08825503,0.0001317,53.2169,7.014,78.0229,282.0911,0.0014256,0.00022464,0.0,0 STARLINK-4292,1 53175U 22083AV  23079.21334165  .00022464  00000-0  14256-2 0  9990,2 53175  53.2169   7.0140 0001317  78.0229 282.0911 15.08825503 37348,6917.925,95.438,540.701,538.879,0.0
53175.0,STARLINK-4292,PAYLOAD,2023-03-21 01:47:13,15.08867802,0.0001249,53.2179,3.1485,74.734,285.3791,0.0013099,0.00020636,0.0,0 STARLINK-4292,1 53175U 22083AV  23080.07445603  .00020636  00000-0  13099-2 0  9999,2 53175  53.2179   3.1485 0001249  74.7340 285.3791 15.08867802 37473,6917.795,95.436,540.524,538.796,0.0
53175.0,STARLINK-4292,PAYLOAD,2023-03-21 22:27:13,15.08856139,0.0001126,53.2174,359.2825,110.5013,249.61,0.00059546,9.206e-05,0.0,0 STARLINK-4292,1 53175U 22083AV  23080.93557480  .00009206  00000-0  59546-3 0  9999,2 53175  53.2174 359.2825 0001126 110.5013 249.6100 15.08856139 37604,6917.831,95.437,540.475,538.917,0.0
53175.0,STARLINK-4292,PAYLOAD,2023-03-22 04:48:46,15.08854206,7.89e-05,53.2173,358.0938,68.1317,291.9759,0.001646,0.00026015,0.0,0 STARLINK-4292,1 53175U 22083AV  23081.20053613  .00026015  00000-0  16460-2 0  9993,2 53175  53.2173 358.0938 0000789  68.1317 291.9759 15.08854206 38282,6917.837,95.437,540.248,539.156,0.0
53175.0,STARLINK-4292,PAYLOAD,2023-03-23 03:04:09,15.08864628,0.0001145,53.2167,353.9289,78.0048,282.1072,0.0017624,0.00027891,0.0,0 STARLINK-4292,1 53175U 22083AV  23082.12789178  .00027891  00000-0  17624-2 0  9993,2 53175  53.2167 353.9289 0001145  78.0048 282.1072 15.08864628 38421,6917.805,95.436,540.462,538.878,0.0
53175.0,STARLINK-4292,PAYLOAD,2023-03-23 22:08:47,15.08848256,5.75e-05,53.2159,350.3619,66.333,293.7723,0.0015219,0.00024022,0.0,0 STARLINK-4292,1 53175U 22083AV  23082.92277390  .00024022  00000-0  15219-2 0  9990,2 53175  53.2159 350.3619 0000575  66.3330 293.7723 15.08848256 37902,6917.855,95.437,540.118,539.322,0.0
53175.0,STARLINK-4292,PAYLOAD,2023-03-24 02:54:56,15.08867021,8.25e-05,53.2159,349.4689,79.3173,280.7913,0.0015975,0.00025246,0.0,0 STARLINK-4292,1 53175U 22083AV  23083.12149040  .00025246  00000-0  15975-2 0  9991,2 53175  53.2159 349.4689 0000825  79.3173 280.7913 15.08867021 38577,6917.798,95.436,540.234,539.092,0.0
53175.0,STARLINK-4292,PAYLOAD,2023-03-24 21:59:33,15.08873928,0.0001032,53.2152,345.9017,87.8118,272.2992,0.0013817,0.00021791,0.0,0 STARLINK-4292,1 53175U 22083AV  23083.91636325  .00021791  00000-0  13817-2 0  9999,2 53175  53.2152 345.9017 0001032  87.8118 272.2992 15.08873928 38059,6917.777,95.435,540.356,538.928,0.0
53175.0,STARLINK-4292,PAYLOAD,2023-03-25 02:45:42,15.08900725,0.0001325,53.2159,345.0097,65.6073,294.5057,0.0023804,0.00037863,0.0,0 STARLINK-4292,1 53175U 22083AV  23084.11507730  .00037863  00000-0  23804-2 0  9993,2 53175  53.2159 345.0097 0001325  65.6073 294.5057 15.08900725 38723,6917.695,95.434,540.476,538.643,0.0
53175.0,STARLINK-4292,PAYLOAD,2023-03-25 21:50:21,15.08819018,9.89e-05,53.2159,341.4407,91.3889,268.7216,0.0012773,0.00020087,0.0,0 STARLINK-4292,1 53175U 22083AV  23084.90997679  .00020087  00000-0  12773-2 0  9998,2 53175  53.2159 341.4407 0000989  91.3889 268.7216 15.08819018 38201,6917.945,95.439,540.494,539.125,0.0
53175.0,STARLINK-4292,PAYLOAD,2023-03-26 04:11:55,15.08803818,0.000129,53.2161,340.2522,77.5199,282.5937,0.0010953,0.00017169,0.0,0 STARLINK-4292,1 53175U 22083AV  23085.17494559  .00017169  00000-0  10953-2 0  9992,2 53175  53.2161 340.2522 0001290  77.5199 282.5937 15.08803818 38884,6917.991,95.44,540.748,538.964,0.0
53175.0,STARLINK-4292,PAYLOAD,2023-03-26 21:41:10,15.08833369,0.0001393,53.2168,336.982,82.8337,277.2814,0.0010725,0.00016819,0.0,0 STARLINK-4292,1 53175U 22083AV  23085.90359356  .00016819  00000-0  10725-2 0  9996,2 53175  53.2168 336.9820 0001393  82.8337 277.2814 15.08833369 38352,6917.901,95.438,540.729,538.802,0.0
